[
    {
        "Altitude(m)": 560905.5689935492,
        "Argument of Periapsis(deg)": 0.0,
        "Eccentricity": 0.0,
        "Inclination(deg)": 53.0,
        "Latitude(deg)": -25.776367889182406,
        "Longitude(deg)": -68.75192736034971,
        "Mean Anomaly(deg)": -147.27269999999996,
        "RAAN(deg)": 190.0,
        "Satellite Name": "Starlink Shell 1 849",
        "Satellite Number": 849,
        "Semi-Major Axis(m)": 6931778.249405717,
        "Time(s)": 0
    },
    {
        "Altitude(m)": 561076.8481997607,
        "Argument of Periapsis(deg)": 0.00034857847951123687,
        "Eccentricity": 0.0,
        "Inclination(deg)": 53.0,
        "Latitude(deg)": -26.24380814437932,
        "Longitude(deg)": -68.3282171539233,
        "Mean Anomaly(deg)": -146.64586879644327,
        "RAAN(deg)": 189.99948122992254,
        "Satellite Name": "Starlink Shell 1 849",
        "Satellite Number": 849,
        "Semi-Major Axis(m)": 6931778.249405717,
        "Time(s)": 10
    },
    {
        "Altitude(m)": 561248.8161376298,
        "Argument of Periapsis(deg)": 0.0006971569590224737,
        "Eccentricity": 0.0,
        "Inclination(deg)": 53.0,
        "Latitude(deg)": -26.709687297446408,
        "Longitude(deg)": -67.90079540647368,
        "Mean Anomaly(deg)": -146.01903759288655,
        "RAAN(deg)": 189.99896245984505,
        "Satellite Name": "Starlink Shell 1 849",
        "Satellite Number": 849,
        "Semi-Major Axis(m)": 6931778.249405717,
        "Time(s)": 20
    },
    {
        "Altitude(m)": 561421.4097631699,
        "Argument of Periapsis(deg)": 0.0010457354385337105,
        "Eccentricity": 0.0,
        "Inclination(deg)": 53.0,
        "Latitude(deg)": -27.17396175546885,
        "Longitude(deg)": -67.46956790936063,
        "Mean Anomaly(deg)": -145.3922063893299,
        "RAAN(deg)": 189.9984436897676,
        "Satellite Name": "Starlink Shell 1 849",
        "Satellite Number": 849,
        "Semi-Major Axis(m)": 6931778.249405717,
        "Time(s)": 30
    },
    {
        "Altitude(m)": 561594.5656053958,
        "Argument of Periapsis(deg)": 0.0013943139180449475,
        "Eccentricity": 0.0,
        "Inclination(deg)": 53.0,
        "Latitude(deg)": -27.636586989658525,
        "Longitude(deg)": -67.03443866042147,
        "Mean Anomaly(deg)": -144.76537518577314,
        "RAAN(deg)": 189.99792491969015,
        "Satellite Name": "Starlink Shell 1 849",
        "Satellite Number": 849,
        "Semi-Major Axis(m)": 6931778.249405717,
        "Time(s)": 40
    },
    {
        "Altitude(m)": 561768.2197948054,
        "Argument of Periapsis(deg)": 0.0017428923975561844,
        "Eccentricity": 0.0,
        "Inclination(deg)": 53.0,
        "Latitude(deg)": -28.097517506957907,
        "Longitude(deg)": -66.59531086637413,
        "Mean Anomaly(deg)": -144.13854398221642,
        "RAAN(deg)": 189.99740614961266,
        "Satellite Name": "Starlink Shell 1 849",
        "Satellite Number": 849,
        "Semi-Major Axis(m)": 6931778.249405717,
        "Time(s)": 50
    },
    {
        "Altitude(m)": 561942.3080920379,
        "Argument of Periapsis(deg)": 0.002091470877067421,
        "Eccentricity": 0.0,
        "Inclination(deg)": 53.0,
        "Latitude(deg)": -28.556706821160468,
        "Longitude(deg)": -66.1520864347842,
        "Mean Anomaly(deg)": -143.51171277865973,
        "RAAN(deg)": 189.9968873795352,
        "Satellite Name": "Starlink Shell 1 849",
        "Satellite Number": 849,
        "Semi-Major Axis(m)": 6931778.249405717,
        "Time(s)": 60
    },
    {
        "Altitude(m)": 562116.7659166757,
        "Argument of Periapsis(deg)": 0.0024400493565786582,
        "Eccentricity": 0.0,
        "Inclination(deg)": 53.0,
        "Latitude(deg)": -29.014107423560013,
        "Longitude(deg)": -65.70466546869181,
        "Mean Anomaly(deg)": -142.88488157510298,
        "RAAN(deg)": 189.9963686094577,
        "Satellite Name": "Starlink Shell 1 849",
        "Satellite Number": 849,
        "Semi-Major Axis(m)": 6931778.249405717,
        "Time(s)": 70
    },
    {
        "Altitude(m)": 562291.5283762313,
        "Argument of Periapsis(deg)": 0.002788627836089895,
        "Eccentricity": 0.0,
        "Inclination(deg)": 53.0,
        "Latitude(deg)": -29.469670753147664,
        "Longitude(deg)": -65.25294727700695,
        "Mean Anomaly(deg)": -142.2580503715463,
        "RAAN(deg)": 189.99584983938024,
        "Satellite Name": "Starlink Shell 1 849",
        "Satellite Number": 849,
        "Semi-Major Axis(m)": 6931778.249405717,
        "Time(s)": 80
    },
    {
        "Altitude(m)": 562466.5302952495,
        "Argument of Periapsis(deg)": 0.0031372063156011316,
        "Eccentricity": 0.0,
        "Inclination(deg)": 53.0,
        "Latitude(deg)": -29.92334716637821,
        "Longitude(deg)": -64.79682987517143,
        "Mean Anomaly(deg)": -141.63121916798954,
        "RAAN(deg)": 189.99533106930275,
        "Satellite Name": "Starlink Shell 1 849",
        "Satellite Number": 849,
        "Semi-Major Axis(m)": 6931778.249405717,
        "Time(s)": 90
    },
    {
        "Altitude(m)": 562641.7062445397,
        "Argument of Periapsis(deg)": 0.0034857847951123688,
        "Eccentricity": 0.0,
        "Inclination(deg)": 53.0,
        "Latitude(deg)": -30.37508590652808,
        "Longitude(deg)": -64.33620948922987,
        "Mean Anomaly(deg)": -141.00438796443282,
        "RAAN(deg)": 189.9948122992253,
        "Satellite Name": "Starlink Shell 1 849",
        "Satellite Number": 849,
        "Semi-Major Axis(m)": 6931778.249405717,
        "Time(s)": 100
    },
    {
        "Altitude(m)": 562816.9905705171,
        "Argument of Periapsis(deg)": 0.003834363274623606,
        "Eccentricity": 0.0,
        "Inclination(deg)": 53.0,
        "Latitude(deg)": -30.82483507267777,
        "Longitude(deg)": -63.870981576465084,
        "Mean Anomaly(deg)": -140.3775567608761,
        "RAAN(deg)": 189.9942935291478,
        "Satellite Name": "Starlink Shell 1 849",
        "Satellite Number": 849,
        "Semi-Major Axis(m)": 6931778.249405717,
        "Time(s)": 110
    },
    {
        "Altitude(m)": 562992.3174246354,
        "Argument of Periapsis(deg)": 0.004182941754134842,
        "Eccentricity": 0.0,
        "Inclination(deg)": 53.0,
        "Latitude(deg)": -31.272541588348954,
        "Longitude(deg)": -63.401040337146895,
        "Mean Anomaly(deg)": -139.75072555731938,
        "RAAN(deg)": 189.99377475907033,
        "Satellite Name": "Starlink Shell 1 849",
        "Satellite Number": 849,
        "Semi-Major Axis(m)": 6931778.249405717,
        "Time(s)": 120
    },
    {
        "Altitude(m)": 563167.6207929024,
        "Argument of Periapsis(deg)": 0.004531520233646079,
        "Eccentricity": 0.0,
        "Inclination(deg)": 53.0,
        "Latitude(deg)": -31.71815116983479,
        "Longitude(deg)": -62.926278230587876,
        "Mean Anomaly(deg)": -139.1238943537627,
        "RAAN(deg)": 189.99325598899287,
        "Satellite Name": "Starlink Shell 1 849",
        "Satellite Number": 849,
        "Semi-Major Axis(m)": 6931778.249405717,
        "Time(s)": 130
    },
    {
        "Altitude(m)": 563342.8345254704,
        "Argument of Periapsis(deg)": 0.0048800987131573164,
        "Eccentricity": 0.0,
        "Inclination(deg)": 53.0,
        "Latitude(deg)": -32.16160829426963,
        "Longitude(deg)": -62.44658700871376,
        "Mean Anomaly(deg)": -138.49706315020597,
        "RAAN(deg)": 189.99273721891538,
        "Satellite Name": "Starlink Shell 1 849",
        "Satellite Number": 849,
        "Semi-Major Axis(m)": 6931778.249405717,
        "Time(s)": 140
    },
    {
        "Altitude(m)": 563517.8923662641,
        "Argument of Periapsis(deg)": 0.005228677192668553,
        "Eccentricity": 0.0,
        "Inclination(deg)": 53.0,
        "Latitude(deg)": -32.60285616748311,
        "Longitude(deg)": -61.96185724175411,
        "Mean Anomaly(deg)": -137.87023194664928,
        "RAAN(deg)": 189.99221844883792,
        "Satellite Name": "Starlink Shell 1 849",
        "Satellite Number": 849,
        "Semi-Major Axis(m)": 6931778.249405717,
        "Time(s)": 150
    },
    {
        "Altitude(m)": 563692.7279826411,
        "Argument of Periapsis(deg)": 0.00557725567217979,
        "Eccentricity": 0.0,
        "Inclination(deg)": 53.0,
        "Latitude(deg)": -33.041836691696,
        "Longitude(deg)": -61.47197784930099,
        "Mean Anomaly(deg)": -137.24340074309254,
        "RAAN(deg)": 189.99169967876048,
        "Satellite Name": "Starlink Shell 1 849",
        "Satellite Number": 849,
        "Semi-Major Axis(m)": 6931778.249405717,
        "Time(s)": 160
    },
    {
        "Altitude(m)": 563867.274995113,
        "Argument of Periapsis(deg)": 0.0059258341516910265,
        "Eccentricity": 0.0,
        "Inclination(deg)": 53.0,
        "Latitude(deg)": -33.478490433119916,
        "Longitude(deg)": -60.97683715000259,
        "Mean Anomaly(deg)": -136.61656953953587,
        "RAAN(deg)": 189.991180908683,
        "Satellite Name": "Starlink Shell 1 849",
        "Satellite Number": 849,
        "Semi-Major Axis(m)": 6931778.249405717,
        "Time(s)": 170
    },
    {
        "Altitude(m)": 564041.4670070353,
        "Argument of Periapsis(deg)": 0.006274412631202263,
        "Eccentricity": 0.0,
        "Inclination(deg)": 53.0,
        "Latitude(deg)": -33.91275658952715,
        "Longitude(deg)": -60.47632240455428,
        "Mean Anomaly(deg)": -135.98973833597907,
        "RAAN(deg)": 189.99066213860553,
        "Satellite Name": "Starlink Shell 1 849",
        "Satellite Number": 849,
        "Semi-Major Axis(m)": 6931778.249405717,
        "Time(s)": 180
    }
]